satellite_id,OBJECT_NAME,OBJECT_ID,EPOCH,MEAN_MOTION,ECCENTRICITY,INCLINATION,RA_OF_ASC_NODE,ARG_OF_PERICENTER,MEAN_ANOMALY,EPHEMERIS_TYPE,CLASSIFICATION_TYPE,NORAD_CAT_ID,ELEMENT_SET_NO,REV_AT_EPOCH,BSTAR,MEAN_MOTION_DOT,MEAN_MOTION_DDOT,operator,orbit_type,eccentricity_risk
439,MEV-2,2020-056B,2026-06-20T09:24:12.426336,1.00270649,1.01e-05,0.0164,305.9154,152.4907,310.2364,0,U,46113,999,8058,0,-1.6e-07,0,GEO,GEO,0.0101
440,GALAXY 30 (G-30),2020-056C,2026-06-20T09:28:38.667936,1.00273107,0.0002284,0.0183,12.9122,75.3591,197.494,0,U,46114,999,2132,0,3.2e-07,0,GEO,GEO,0.2284
441,GAOFEN-13 01,2020-071A,2026-06-21T21:54:07.286112,1.00268505,0.004136,0.5345,84.8388,123.4638,148.5091,0,U,46610,999,2096,0,-3.63e-06,0,GEO,GEO,4.136
442,TIANTONG-1 2,2020-082A,2026-06-21T05:31:38.847936,1.00267638,0.0001133,0.7848,328.1695,115.6613,33.3919,0,U,46916,999,2069,0,-3.58e-06,0,GEO,GEO,0.1133
443,LUCAS (JDRS-1),2020-089A,2026-06-20T09:50:21.007968,1.00269176,0.0002347,0.0494,274.3402,151.9999,80.6439,0,U,47202,999,2045,0,-2.39e-06,0,GEO,GEO,0.2347
444,SXM-7,2020-096A,2026-06-20T09:12:38.572128,1.00266556,0.0003937,0.0324,103.0766,23.9681,194.5424,0,U,47240,999,747,0,-2.09e-06,0,GEO,GEO,0.3937
445,CMS-01,2020-099A,2026-06-20T09:48:06.223968,1.00270928,0.0003485,0.0154,78.5042,201.8183,218.3086,0,U,47256,999,2023,0,-1.69e-06,0,GEO,GEO,0.3485
446,TURKSAT 5A,2021-001A,2026-06-20T06:07:57.232128,1.00271694,1.86e-05,0.0171,61.0853,297.9813,32.3204,0,U,47306,999,1999,0,1.49e-06,0,GEO,GEO,0.0186
447,TIANTONG-1 3,2021-003A,2026-06-21T13:10:21.166176,1.00269921,0.0003142,1.7523,339.6373,114.2534,94.9493,0,U,47321,999,2000,0,-1.56e-06,0,GEO,GEO,0.3142
448,TJS-6,2021-010A,2026-06-21T10:12:39.030336,1.0027079,0.0003014,0.2382,263.7649,225.1211,112.3612,0,U,47613,999,1984,0,4.1e-07,0,GEO,GEO,0.3014
449,SBIRS GEO-5 (USA 315),2021-042A,2026-06-20T09:51:13.425120,1.00271391,0.0001463,5.0991,329.163,120.1566,60.9118,0,U,48618,999,1880,0,-2.75e-06,0,GEO,NON_GEO,0.1463
450,FENGYUN 4B,2021-047A,2026-06-21T13:16:56.364960,1.00275001,0.0005927,0.1647,78.1229,276.9641,218.587,0,U,48808,999,1861,0,-3.32e-06,0,GEO,GEO,0.5927
451,SXM-8,2021-049A,2026-06-20T07:48:38.765952,1.00271411,0.0005064,0.0192,19.7196,11.6595,269.1643,0,U,48838,999,1861,0,-2.1e-06,0,GEO,GEO,0.5064
452,TIANLIAN 1-05,2021-063A,2026-06-20T21:27:49.338720,1.00272457,5.81e-05,1.6045,80.6811,349.1913,177.9819,0,U,49011,999,1811,0,1.04e-06,0,GEO,GEO,0.0581
453,STAR ONE D2,2021-069A,2026-06-18T19:26:03.034176,1.00270132,0.00020325,0.0153,340.0202,132.6885,15.7458,0,U,49055,999,1796,0,0.0,0,GEO,GEO,0.20325
454,ZHONGXING-2E,2021-071A,2026-06-20T09:52:13.328832,1.00272973,0.0001673,0.0209,225.11,266.6751,22.9587,0,U,49062,999,1807,0,-2.96e-06,0,GEO,GEO,0.1673
455,TJS-7,2021-077A,2026-06-21T15:43:58.930752,1.00277933,0.0003566,0.3427,264.9653,117.0822,24.2691,0,U,49115,999,959,0,-1.25e-06,0,GEO,GEO,0.3566
456,CHINASAT 9B,2021-080A,2026-06-21T13:15:56.462112,1.00273166,0.0002119,0.033,262.4533,209.883,97.7954,0,U,49125,999,1769,0,-3.14e-06,0,GEO,GEO,0.2119
457,SHIJIAN-21 (SJ-21),2021-094A,2026-06-20T11:47:27.888864,1.00269328,0.0049654,5.1217,61.1679,168.2525,344.1673,0,U,49330,999,539,0,-3.53e-06,0,GEO,NON_GEO,4.9654
458,SES-17,2021-095A,2026-06-18T14:18:52.046208,1.00269036,8.114e-05,0.0267,40.8266,45.0665,328.5524,0,U,49332,999,1786,0,-2.78e-06,0,GEO,GEO,0.08114
459,SYRACUSE 4A,2021-095B,2026-06-19T06:14:56.927040,1.0026875,0.00016356,0.0178,11.5381,69.1185,326.0593,0,U,49333,999,1796,0,1.29e-06,0,GEO,GEO,0.16356
460,QZS-1R (MICHIBIKI-1R),2021-096A,2026-06-19T15:10:55.566912,1.00254705,0.07548004,37.4674,79.546,271.8525,278.0167,0,U,49336,999,1703,0,-2.9e-06,0,GEO,NON_GEO,75.48004
461,ZHONGXING-1D,2021-114A,2026-06-21T21:57:29.462976,1.0027506,2.82e-05,0.0408,166.9763,28.8668,173.7879,0,U,49505,999,1686,0,-3.36e-06,0,GEO,GEO,0.0282
462,STPSAT-6,2021-118A,2026-06-20T10:42:38.884032,1.00269666,0.0001185,0.3304,85.3568,256.6364,335.6712,0,U,49817,999,1660,0,-5e-07,0,GEO,GEO,0.1185
463,EXPRESS AMU-7,2021-123A,2026-06-21T22:01:44.056992,1.00272286,3.8e-06,0.0163,288.9404,247.1321,209.4669,0,U,50001,999,1658,0,-2.42e-06,0,GEO,GEO,0.0038
464,EXPRESS AMU-3,2021-123B,2026-06-20T23:11:44.489760,1.00269559,4e-05,0.0209,335.7514,303.9567,80.2873,0,U,50002,999,707,0,0.0,0,GEO,GEO,0.04
465,TIANLIAN 2-02,2021-124A,2026-06-21T20:26:22.774272,1.00281719,0.0001195,0.8148,86.0573,167.1157,134.4235,0,U,50005,999,1666,0,-1.3e-07,0,GEO,GEO,0.1195
466,TURKSAT 5B,2021-126A,2026-06-19T02:48:36.163008,1.00271147,0.00032341,0.0673,343.7991,12.4246,355.2631,0,U,50212,999,1631,0,1.4e-06,0,GEO,GEO,0.32341
467,INMARSAT 6-F1,2021-128A,2026-06-18T20:09:55.247328,1.00270212,3.03e-05,0.0186,327.5438,244.7765,80.9907,0,U,50319,999,1627,0,-1.78e-06,0,GEO,GEO,0.0303
